{"fetched_at":"2026-07-15T17:46:51.301Z","source":"https://celestrak.org/NORAD/elements/gp.php?GROUP=spire&FORMAT=JSON","constellation":"spire","records":[{"OBJECT_NAME":"LEMUR-2-MYRA","OBJECT_ID":"2025-276EC","EPOCH":"2026-07-15T03:16:28.555104","CLASSIFICATION_TYPE":"U","MEAN_MOTION":15.00588809,"ECCENTRICITY":0.0018687,"INCLINATION":97.5222,"RA_OF_ASC_NODE":266.106,"ARG_OF_PERICENTER":54.4784,"MEAN_ANOMALY":305.818,"EPHEMERIS_TYPE":0,"NORAD_CAT_ID":66787,"ELEMENT_SET_NO":999,"REV_AT_EPOCH":3440,"BSTAR":0.00026713,"MEAN_MOTION_DOT":0.00003327,"MEAN_MOTION_DDOT":0},{"OBJECT_NAME":"LEMUR-2 FIKRETDENGIZ","OBJECT_ID":"2026-004A","EPOCH":"2026-07-14T23:11:10.010112","CLASSIFICATION_TYPE":"U","MEAN_MOTION":14.88516251,"ECCENTRICITY":0.0010209,"INCLINATION":97.8023,"RA_OF_ASC_NODE":194.1018,"ARG_OF_PERICENTER":56.4676,"MEAN_ANOMALY":303.7515,"EPHEMERIS_TYPE":0,"NORAD_CAT_ID":67363,"ELEMENT_SET_NO":999,"REV_AT_EPOCH":2741,"BSTAR":0.00020756,"MEAN_MOTION_DOT":0.00001876,"MEAN_MOTION_DDOT":0},{"OBJECT_NAME":"TWILIGHT-1 OBJECT B","OBJECT_ID":"2026-004B","EPOCH":"2026-07-14T22:27:38.836224","CLASSIFICATION_TYPE":"U","MEAN_MOTION":14.8779309,"ECCENTRICITY":0.0009759,"INCLINATION":97.8075,"RA_OF_ASC_NODE":194.0728,"ARG_OF_PERICENTER":46.7281,"MEAN_ANOMALY":313.4748,"EPHEMERIS_TYPE":0,"NORAD_CAT_ID":67364,"ELEMENT_SET_NO":999,"REV_AT_EPOCH":2741,"BSTAR":0.00010603,"MEAN_MOTION_DOT":0.00000914,"MEAN_MOTION_DDOT":0},{"OBJECT_NAME":"LEMUR-2-MARIO-SOUSA","OBJECT_ID":"2026-004C","EPOCH":"2026-07-15T00:19:00.206112","CLASSIFICATION_TYPE":"U","MEAN_MOTION":14.88726718,"ECCENTRICITY":0.0009855,"INCLINATION":97.7997,"RA_OF_ASC_NODE":194.1431,"ARG_OF_PERICENTER":57.5597,"MEAN_ANOMALY":302.6572,"EPHEMERIS_TYPE":0,"NORAD_CAT_ID":67365,"ELEMENT_SET_NO":999,"REV_AT_EPOCH":2743,"BSTAR":0.00028514,"MEAN_MOTION_DOT":0.00002612,"MEAN_MOTION_DDOT":0},{"OBJECT_NAME":"LEMUR-2-SONNENBLUME","OBJECT_ID":"2026-004E","EPOCH":"2026-07-14T22:46:15.491424","CLASSIFICATION_TYPE":"U","MEAN_MOTION":14.88452492,"ECCENTRICITY":0.0009409,"INCLINATION":97.8,"RA_OF_ASC_NODE":194.0524,"ARG_OF_PERICENTER":58.8207,"MEAN_ANOMALY":301.3931,"EPHEMERIS_TYPE":0,"NORAD_CAT_ID":67367,"ELEMENT_SET_NO":999,"REV_AT_EPOCH":2742,"BSTAR":0.00016136,"MEAN_MOTION_DOT":0.00001444,"MEAN_MOTION_DDOT":0},{"OBJECT_NAME":"LEMUR-2-WOBLER","OBJECT_ID":"2026-004F","EPOCH":"2026-07-15T00:07:40.874880","CLASSIFICATION_TYPE":"U","MEAN_MOTION":14.88696914,"ECCENTRICITY":0.000948,"INCLINATION":97.8047,"RA_OF_ASC_NODE":194.2589,"ARG_OF_PERICENTER":50.7409,"MEAN_ANOMALY":309.4648,"EPHEMERIS_TYPE":0,"NORAD_CAT_ID":67368,"ELEMENT_SET_NO":999,"REV_AT_EPOCH":2743,"BSTAR":0.00024676,"MEAN_MOTION_DOT":0.00002251,"MEAN_MOTION_DDOT":0},{"OBJECT_NAME":"LEMUR-2-GRAM-E-SUE","OBJECT_ID":"2026-004H","EPOCH":"2026-07-14T23:56:19.756032","CLASSIFICATION_TYPE":"U","MEAN_MOTION":14.88589007,"ECCENTRICITY":0.0008614,"INCLINATION":97.7986,"RA_OF_ASC_NODE":194.1169,"ARG_OF_PERICENTER":61.4254,"MEAN_ANOMALY":298.7829,"EPHEMERIS_TYPE":0,"NORAD_CAT_ID":67370,"ELEMENT_SET_NO":999,"REV_AT_EPOCH":2743,"BSTAR":0.00014017,"MEAN_MOTION_DOT":0.00001251,"MEAN_MOTION_DDOT":0},{"OBJECT_NAME":"LEMUR-2-KATIE","OBJECT_ID":"2026-004AA","EPOCH":"2026-07-14T22:54:40.522752","CLASSIFICATION_TYPE":"U","MEAN_MOTION":14.90250586,"ECCENTRICITY":0.0003584,"INCLINATION":97.8043,"RA_OF_ASC_NODE":194.6255,"ARG_OF_PERICENTER":34.1703,"MEAN_ANOMALY":325.9745,"EPHEMERIS_TYPE":0,"NORAD_CAT_ID":67387,"ELEMENT_SET_NO":999,"REV_AT_EPOCH":2744,"BSTAR":0.000294,"MEAN_MOTION_DOT":0.00002798,"MEAN_MOTION_DDOT":0},{"OBJECT_NAME":"LEMUR-2-HCS-BAZUS","OBJECT_ID":"2026-004AB","EPOCH":"2026-07-14T22:52:18.570144","CLASSIFICATION_TYPE":"U","MEAN_MOTION":14.90260741,"ECCENTRICITY":0.0003018,"INCLINATION":97.8038,"RA_OF_ASC_NODE":194.6021,"ARG_OF_PERICENTER":33.404,"MEAN_ANOMALY":326.7368,"EPHEMERIS_TYPE":0,"NORAD_CAT_ID":67388,"ELEMENT_SET_NO":999,"REV_AT_EPOCH":2744,"BSTAR":0.00016524,"MEAN_MOTION_DOT":0.00001548,"MEAN_MOTION_DDOT":0}]}
